#dP2021  8 20  6  0  0.00000000      96 __u+U ITR00 EXT  IAC
## 2171 453600.00000000   900.00000000 59446 0.2500000000000
+  114   C06C08C09C10C11C12C13C14C16C19C20C21C22C23C24C25C26
+        C27C28C29C30C32C33C34C35C36C37C38C39C41C42C43C44C45
+        C46E01E02E03E04E05E07E08E09E11E12E13E14E15E18E19E21
+        E24E25E26E27E30E31E33E36G01G02G03G04G05G06G07G08G09
+        G10G12G13G14G15G16G17G18G19G20G21G22G23G24G25G26G27
+        G28G29G30G31G32J01J02J03R01R02R03R04R05R07R08R09R11
+        R12R13R14R15R16R17R18R19R20R21R22R24  0  0  0  0  0
++         9 10  9  9  8  8 10 11  9 10  9  8  9 10  8  9  8
++         8  8  8 10  9 10  9  8 11  9 10  9 10  9  9  8 10
++         8  9  8  9  9  9  9 10  8  8  9  8  8  8  9  9  8
++         9  8  8  8  8  9  9  8  8  8  7  8  9  8  8  8  8
++         7  8  9  7  8  8  8  9  8  8  7  9  7  8  8  7  8
++         8  8  9  9  8  8  9 10  9  9  9  8  9  9 10  9  8
++         9 10  8  9  8  8  9 10  9  8 10  8  0  0  0  0  0
%c M  cc GPS ccc cccc cccc cccc cccc ccccc ccccc ccccc ccccc
%c cc cc ccc ccc cccc cccc cccc cccc ccccc ccccc ccccc ccccc
%f  0.0000000  0.000000000  0.00000000000  0.000000000000000
%f  0.0000000  0.000000000  0.00000000000  0.000000000000000
%i    0    0    0    0      0      0      0      0         0
%i    0    0    0    0      0      0      0      0         0
/* IAC                                ULTRA-RAPID PREDICTION
/* S/V CLOCKS ARE ALIGNED TO GNSS TIME                      
/* G:C1WC2W R:C1PC2P E:C1XC5X C:C2IC6I J:C1CC2S             
/* PCV:IGS14_2163 OL/AL:FES2004  NONE     YN ORB:CoN CLK:CoN
*  2021 08 20 15 15  0.00000000
PC06 -16496.803736  26888.842171  27882.866781    783.692941
PC08  -7366.758740  20845.183608 -35740.660221   -925.128899
PC09  -5536.150783  26092.247276  32872.758615    -41.782997
PC10  -4497.752452  42183.138669    943.848871     -6.928460
PC11  12394.178954 -16129.268534  19138.647636    527.811106
PC12  25754.778533  -9826.226092   4272.849889    777.518084
PC13   7249.502827  29278.357624 -29260.920837    380.293405
PC14   8550.780880 -26387.908352   2769.395759    705.996831
PC16 -18951.214007  26522.585349  26759.232422   -850.860357
PC19  -1872.363495  27014.308035   6806.618371    954.052939
PC20 -12831.425039  22630.878232 -10129.439611   -816.061331
PC21  16704.280076  -4340.947117  21935.884060   -938.266502
PC22  10505.002310  15934.409509  20366.648924   -950.387579
PC23 -20119.452839 -19332.194499    473.561658   -961.261899
PC24  11477.463710 -11523.934159 -22673.392118   -964.150815
PC25  -7422.750782 -22052.817519 -15419.718685   -867.428435
PC26  21907.235687   4074.386682 -16781.959380    861.740276
PC27 -27211.988831   3815.617250   4817.671327    583.992097
PC28 -17996.921031  -9014.263646  19333.261559    -36.267165
PC29  -1160.413421  16595.395533 -22415.349902    435.930835
PC30 -20331.272115  14914.571545 -11947.173414    478.057144
PC32 -16675.820059   4455.967736 -21919.408868   -933.483068
PC33   1787.075597 -27021.846539  -6695.878424   -960.838714
PC34  19772.672198 -15162.061495  12570.678127   -600.744229
PC35  17990.013492   8685.017587 -19505.678475   -130.784749
PC36   6508.349486  22132.330458  15734.742435   -746.143363
PC37 -22107.869680  -5477.439715  16160.509863   -861.742986
PC38  -6105.350971  24257.397305 -33909.884621    169.899303
PC39 -23914.865187  26925.790964  21789.006799     32.851625
PC41 -10384.891373 -16217.336351 -20153.077671   -955.360675
PC42  13230.444137 -22028.737808  10900.019412   -936.430863
PC43   1866.253814 -16797.288512  22198.509791   -876.561147
PC44  27085.094577  -4553.034953  -5035.120292    350.630807
PC45  20200.224104  19229.207568   -604.540707    525.675697
PC46 -10466.568548  12337.224264  22750.160345    123.377290
PE01  -2170.363579  25670.071073  14586.893719  -1175.706207
PE02   2049.221257 -25751.321429 -14453.755029    241.197335
PE03  12683.183333 -24739.029996 -10143.465129   -465.765597
PE04   4799.158264  18506.701754  22603.823894   -839.074088
PE05  23024.371371 -16546.885961   8495.381862   -255.789743
PE07 -19826.306176  -1172.693672 -21946.935827   -576.066836
PE08  -5123.522492 -18140.344610 -22818.168412   5951.042434
PE09  19813.717096    838.523022  21972.607852   5559.690312
PE11  28515.224675   7554.857563  -2505.492983   5550.297051
PE12  15233.313487  16186.092322 -19559.767933   5050.888815
PE13 -28424.070230  -7722.640281   2950.913732    420.492906
PE14 -12551.201787  24680.438754 -16020.418630  -1542.128972
PE15 -15309.985461 -16069.757726  19585.256692    796.896980
PE18  14671.490244 -17576.006789   7897.818753  -1691.531935
PE19 -14532.852887  24487.144072   8089.725089    356.956482
PE21 -13864.451735  10147.832746  24110.976131   -683.126448
PE24  18035.885395  12975.115274 -19552.359727  -1073.109398
PE25  13956.263648  -9912.625840 -24134.173235   -543.888598
PE26 -24232.617698   5732.900122 -16014.954937   1439.534163
PE27 -18138.541364 -11934.295706  20131.468987   -102.121996
PE30 -10970.105549 -27302.704867   3268.770613   2686.551106
PE31  11700.184631  26843.271366  -4318.495887   -484.646399
PE33  -6790.117769  14930.352431 -24642.341770   -466.044731
PE36  24773.158368  -5136.711892  15360.035306   -251.031284
PG01  21298.738741  14367.767201  -7671.106546    591.964549
PG02    -90.418894 -15974.688828  21865.899372   -627.493257
PG03  12040.896727  19469.602968  13461.388344   -260.834298
PG04  14218.535344   7825.047336  21042.628143   -204.044787
PG05  -6420.162424 -25565.970949  -2564.007767    -51.734886
PG06  13066.460285  -9770.881504  21025.717694     59.330521
PG07  25374.520176   5646.913677  -6232.060217    228.926528
PG08   4223.582392  15397.436792 -21184.248070    -33.365880
PG09  21343.469864  -3222.121658  15428.842256   -359.282336
PG10 -12389.088138  11508.178832 -20291.581616   -186.366964
PG12 -10369.485643 -20547.919237  13122.416183    -85.614690
PG13   4901.095077 -18011.780914 -18976.551778    173.964920
PG14  13020.724299 -11715.451693 -19953.855321     19.515524
PG15  -6830.870386 -15263.365344 -20959.515606   -127.024637
PG16   -266.171663  26186.572120   2291.801530   -376.869025
PG17  22798.348963 -13158.787654  -3131.006707    492.262299
PG18 -24719.353194  -3787.346126  -9089.297354    330.971165
PG19  20052.430854 -16466.329092   5000.461144     42.121547
PG20    -77.508695 -24900.489441   9576.183999    519.552398
PG21  16631.411198  15346.218448 -13622.231688    138.278957
PG22  10755.066612  23566.338189   6510.839655   -533.562754
PG23 -15395.828612  -1241.369297 -21637.255593     68.291234
PG24 -18663.324721 -15225.862951 -11885.737667    213.725687
PG25 -15029.659527 -10317.206201  19145.291528    194.397212
PG26  -6098.796706  21719.564898  13736.732953    124.837090
PG27  -6284.870865  19468.086687 -16913.363957   -181.093546
PG28  10251.615124 -17980.894500 -16207.371297    516.386855
PG29 -20309.220449    -88.514402  17102.481548   -399.153259
PG30  20627.546869  -4158.631655 -16274.204806   -464.256496
PG31 -11837.015529  11076.019294  21022.259157   -135.311549
PG32 -21054.253222  16008.647081   -784.788535      6.293181
PJ01      0.000000      0.000000      0.000000   -444.658804
PJ02 -25728.532441  23174.782646  29027.001095     -1.713890
PJ03 -34742.288855  19030.556763  -9904.170451     -1.002523
PR01  -3410.565372 -15867.991780 -19675.365755     84.129194
PR02 -13094.502397   4117.369626 -21446.746136    490.361027
PR03 -13779.913200  19272.834260  -9341.230751     41.538326
PR04  -6791.290373  23308.556334   7839.308251    100.938639
PR05   3934.789703  14409.185480  20679.048254     77.471565
PR07  13710.096363 -19670.097731   8806.925133    -41.599027
PR08   6750.466325 -23338.780671  -7757.489588    -60.497215
PR09  16613.340059   7993.373792 -17643.194736      9.028935
PR11  -5438.985628 -19666.344748 -15281.471817     46.812446
PR12 -15596.061037 -20085.870087   2134.756097    255.215843
PR13 -16619.304818  -8770.882094  17238.988769    -59.431380
PR14  -7540.347514   8466.392893  22869.998140     67.857216
PR15   5520.340477  20033.534423  14824.268368    101.956629
PR16  16395.375991  19179.846624  -3269.292065    -19.950683
PR17 -20598.036100   7712.423850 -12957.593277    451.429375
PR18  -4985.067443  10601.321606 -22643.575321     87.611360
PR19  12096.184307   8552.980786 -20766.785611   -156.149332
PR20  25045.319145    794.681887  -4861.723085    -54.479800
PR21  19695.991787  -7996.891134  14066.429490   -232.967142
PR22   4077.064721 -10537.066361  22859.410311   -128.865086
PR24 -25185.976498   -109.211084   4126.627673     55.258474
EOF
